JUGNU                   
1 37839U 11058B   25365.04459985  .00000623  00000+0  18560-3 0  9993
2 37839  19.9601 249.9120 0018526  19.7683 109.1883 14.13705391735202
SRMSAT                  
1 37841U 11058D   25365.11773443  .00000560  00000+0  16011-3 0  9991
2 37841  19.9735 356.7282 0011891 154.0584 269.4158 14.11518785734043
SUOMI NPP               
1 37849U 11061A   25364.87906317  .00000195  00000+0  11345-3 0  9992
2 37849  98.7794 302.0592 0002571  89.2401 270.9069 14.19520347734561
YAOGAN-12               
1 37875U 11066B   25365.22198844  .00014405  00000+0  58576-3 0  9990
2 37875  97.1400  46.7022 0011996 100.4791 259.7800 15.24567234786430
ZIYUAN 3-01 (ZY 3-01)   
1 38046U 12001A   25365.19658471  .00145517  00000+0  11006-2 0  9999
2 38046  97.1726  72.0841 0001554 265.7975  94.3112 15.71978726777861
BEIDOU-2 M4             
1 38251U 12018B   25364.51589439 -.00000074  00000+0  00000+0 0  9995
2 38251  55.8059 309.7884 0015081 280.2081  79.6188  1.86229568 92803
ARIRANG-3 (KOMPSAT-3)   
1 38338U 12025B   25365.15690858  .00001106  00000+0  23163-3 0  9993
2 38338  98.3349 319.8878 0004580 270.4306  89.6370 14.61741264726796
HORYU-2                 
1 38340U 12025D   25365.13339192  .00007485  00000+0  78846-3 0  9999
2 38340  98.1954 126.6102 0008547  18.3122 341.8400 14.89639317723693
CSSWE                   
1 38761U 12048D   25365.14322394  .00038776  00000+0  10262-2 0  9992
2 38761  64.6638 298.7517 0084503 221.5269 137.9425 15.34558639 90522
CP5                     
1 38763U 12048F   25365.09690251  .00024124  00000+0  87754-3 0  9991
2 38763  64.6481 346.0968 0111131 224.9599 134.2490 15.22511217 91125
METOP-B                 
1 38771U 12049A   25365.16539275  .00000251  00000+0  13495-3 0  9993
2 38771  98.6774  54.8095 0003350 106.3191 253.8354 14.21416223689393
SJ-9A                   
1 38860U 12056A   25365.14403159  .00001876  00000+0  22467-3 0  9992
2 38860  97.6501 338.4430 0027345  90.4337 270.0012 14.84994452674646
COSMOS 2484 (RODNIK-S 6)
1 39059U 13001C   25365.23586745  .00000067  00000+0  41336-3 0  9994
2 39059  82.5036 326.3369 0027426  41.1731 319.1411 12.42932942587695
SARAL                   
1 39086U 13009A   25365.16411397  .00000262  00000+0  11219-3 0  9998
2 39086  98.5505 188.8542 0002892  74.0863 286.0640 14.32764705671543
AAUSAT 3                
1 39087U 13009B   25365.00590174  .00001497  00000+0  49187-3 0  9999
2 39087  98.3637 187.6655 0011508   2.3651 357.7590 14.39649620672976
STRAND-1                
1 39090U 13009E   25365.05165705  .00000703  00000+0  25143-3 0  9991
2 39090  98.3826 184.4743 0009012  20.5894 339.5655 14.37023146672912
BRITE-AUSTRIA           
1 39091U 13009F   25365.06389343  .00000464  00000+0  17287-3 0  9993
2 39091  98.3892 183.7126 0010710  27.9621 332.2139 14.36448231672911
UNIBRITE                
1 39092U 13009G   25365.06109578  .00000451  00000+0  16888-3 0  9996
2 39092  98.3932 183.7790 0009584  25.1500 335.0152 14.36319466672853
AIST-2 (RS-43)          
1 39133U 13015D   25365.20454568  .00012682  00000+0  52452-3 0  9993
2 39133  64.8706  85.7191 0028188 254.8946 104.9065 15.23902102698281
GAOFEN-1                
1 39150U 13018A   25365.20277326  .00000969  00000+0  14603-3 0  9991
2 39150  97.9307  75.5332 0018574  87.3338 272.9997 14.76514941683450
NEE-01 PEGASO           
1 39151U 13018B   25364.86072279  .00006677  00000+0  65527-3 0  9996
2 39151  98.0964 138.8486 0012908   4.2284 355.9040 14.92486148685580
TURKSAT-3USAT           
1 39152U 13018C   25364.77320803  .00006847  00000+0  63043-3 0  9996
2 39152  97.8005  91.4451 0011412 304.7942  55.2204 14.95003572685916
CUBEBUG-1 (CAPITAN BETO)
1 39153U 13018D   25364.95753866  .00007902  00000+0  71180-3 0  9990
2 39153  98.1418 152.7959 0011641 350.2872   9.8121 14.95829253685909
PROBA-V                 
1 39159U 13021A   25364.85507420  .00000181  00000+0  97608-4 0  9998
2 39159  98.3404 346.9445 0003003 265.3163  94.7674 14.23553057657161
ESTCUBE 1               
1 39161U 13021C   25365.10941396  .00003960  00000+0  52070-3 0  9995
2 39161  97.7559  60.0539 0007925 194.9804 165.1176 14.80732262680146
ARIRANG-5 (KOMPSAT-5)   
1 39227U 13042A   25365.16603041  .00002761  00000+0  20143-3 0  9993
2 39227  97.6162 189.2081 0002609  22.8663 337.2679 15.04518864678593
GONETS-M 5              
1 39249U 13048A   25365.19834086  .00000097  00000+0  63146-3 0  9991
2 39249  82.4817  88.1185 0016282 215.4510 144.5489 12.42886462558014
GONETS-M 7              
1 39251U 13048C   25365.24479219  .00000061  00000+0  36941-3 0  9997
2 39251  82.4885  90.9243 0017097 216.8466 143.1440 12.42907433557976
FENGYUN 3C              
1 39260U 13052A   25365.19127020  .00000223  00000+0  13470-3 0  9998
2 39260  98.4785 341.9715 0015280 143.4342 216.7879 14.15702833634793
CASSIOPE                
1 39265U 13055A   25365.16421953  .00045191 -91112-7  59899-3 0  9996
2 39265  80.9201 268.9676 0334478 264.2113  92.0898 15.12990495642158
APRIZESAT 7             
1 39416U 13066A   25351.58791045  .00001184  00000+0  12412-3 0  9990
2 39416  97.7478 302.7623 0037879  93.0669 267.4884 14.90916766654167
ZACUBE-1 (TSHEPISOSAT)  
1 39417U 13066B   25364.54616869  .00009097  00000+0  73614-3 0  9993
2 39417  97.8052 321.1188 0042389  90.5123 270.0957 14.99273357655441
APRIZESAT 8             
1 39425U 13066K   25365.09906848  .00002167  00000+0  24220-3 0  9992
2 39425  97.8025 310.1751 0047667 118.0614 242.5434 14.87166356654685
CINEMA-3 (KHUSAT-2)     
1 39426U 13066L   25364.50525666  .00003734  00000+0  49331-3 0  9994
2 39426  97.8451 276.1215 0092030  39.4850 321.3019 14.77649620649539
TRITON-1                
1 39427U 13066M   25365.15907398  .00006342  00000+0  77317-3 0  9996
2 39427  97.8322 273.8394 0093285  62.0323 299.0292 14.80611619649219
DELFI-N3XT              
1 39428U 13066N   25364.71531394  .00015536  00000+0  14378-2 0  9999
2 39428  97.8347 280.5118 0080382  47.2029 313.5912 14.92146108649476
GOMX-1                  
1 39430U 13066Q   25365.16095575  .00004012  00000+0  61503-3 0  9998
2 39430  97.6587 211.1352 0128886 256.9681 101.7110 14.68696202645244
BRITE-PL1 (LEM)         
1 39431U 13066R   25364.33963079  .00002305  00000+0  46886-3 0  9990
2 39431  97.7792 123.9982 0190991 176.0522 184.2236 14.51064072639441
ICUBE-1                 
1 39432U 13066S   25364.91197225  .00023076  00000+0  10488-2 0  9993
2 39432  97.5556 344.2500 0017621 194.1999 165.8743 15.20617922658791
HUMSAT-D                
1 39433U 13066T   25364.99169304  .00177817  00000+0  20034-2 0  9990
2 39433  97.4993   7.5800 0009892  94.1523 266.0865 15.61904123660633
VELOX-PII               
1 39438U 13066Y   25351.41070081  .00003409  00000+0  33591-3 0  9999
2 39438  97.8533 297.9975 0052986 223.7403 135.9612 14.91683963650720
FIRST-MOVE              
1 39439U 13066Z   25364.93471704  .00219920  00000+0  27720-2 0  9991
2 39439  97.7475 350.9087 0011815   4.5983 355.5378 15.58790229656344
CUBEBUG-2 (LO-74)       
1 39440U 13066AA  25351.56788106  .00003439  00000+0  33426-3 0  9992
2 39440  97.8708 295.2332 0058016 269.4523  90.0047 14.92015584649893
NEE-02 KRYSAOR          
1 39441U 13066AB  25351.76100244  .00002517  00000+0  28598-3 0  9996
2 39441  97.8738 287.5718 0066127 305.4504  54.0549 14.85627194649256
FUNCUBE-1 (AO-73)       
1 39444U 13066AE  25364.85898673  .00015866  00000+0  10629-2 0  9999
2 39444  97.8072 328.3647 0040303  57.0923 303.4171 15.06304071654290
HINCUBE                 
1 39445U 13066AF  25364.89487553  .00015394  00000+0  10631-2 0  9994
2 39445  97.7773 326.4548 0037269  63.6034 296.9010 15.05280279654188
UWE-3                   
1 39446U 13066AG  25364.82385594  .00008154  00000+0  72635-3 0  9999
2 39446  97.8499 315.1897 0051260 158.5111 201.8277 14.95277368652400
SMDC ONE 2.4            
1 39469U 13072H   25365.09725350  .00027663  00000+0  11699-2 0  9997
2 39469 120.4938  65.3213 0154639 189.1434 170.6803 15.12892460 92349
CP8 (IPEX)              
1 39471U 13072K   25364.94505868  .00013655  00000+0  70291-3 0  9993
2 39471 120.4702  20.8421 0175370 176.5430 183.6882 15.04512982 89884
COSMOS 2488 (RODNIK-S 7)
1 39483U 13076A   25365.20312168 -.00000145  00000+0 -11166-2 0  9996
2 39483  82.4841 273.3727 0019981  99.6714 260.6623 12.42870707545020
COSMOS 2489 (RODNIK-S 8)
1 39484U 13076B   25365.17530356  .00000024  00000+0  97165-4 0  9993
2 39484  82.4879 274.7149 0021759 100.1606 260.1929 12.42872583545072
COSMOS 2490 (RODNIK-S 9)
1 39485U 13076C   25365.14689209 -.00000032  00000+0 -30584-3 0  9995
2 39485  82.4825 272.8719 0021705 115.8070 244.5252 12.42870659545005
AIST-1 (RS-41)          
1 39492U 13078C   25365.18447975  .00004284  00000+0  38408-3 0  9995
2 39492  82.4160  73.5665 0018398 118.8032 241.5039 14.95433838650131
KAZEOSAT 1              
1 39731U 14024A   25365.17729951  .00000288  00000+0  10066-3 0  9999
2 39731  98.3414  76.6692 0001209  83.3127 276.8201 14.42037579614342
COSMOS 2496 (RODNIK-S *)
1 39761U 14028A   25365.18502970 -.00000054  00000+0 -46127-3 0  9997
2 39761  82.4443 213.9317 0020347  85.2277 275.1125 12.42871060526643
COSMOS 2497 (RODNIK-S *)
1 39762U 14028B   25365.16147907  .00000017  00000+0  49598-4 0  9994
2 39762  82.4491 215.5712 0020900  80.5132 279.8309 12.42871667526645
COSMOS 2498 (RODNIK-S *)
1 39763U 14028C   25365.15173538 -.00000001  00000+0 -79474-4 0  9994
2 39763  82.4452 214.1379 0021618  80.0352 280.3166 12.42973200526670
COSMOS 2499 (RS-47)     
1 39765U 14028E   25365.13713308  .00000050  00000+0  14394-3 0  9990
2 39765  82.4503   5.8333 0232295  36.4246 325.2411 12.82899098543471
HODOYOSHI-4             
1 40011U 14033B   25365.17481679  .00001218  00000+0  13919-3 0  9998
2 40011  97.5418 193.1505 0024609 139.6566 220.6482 14.87555804623825
